NORAD_CAT_ID,OBJECT_NAME,OBJECT_TYPE,EPOCH,MEAN_MOTION,ECCENTRICITY,INCLINATION,RA_OF_ASC_NODE,ARG_OF_PERICENTER,MEAN_ANOMALY,BSTAR,MEAN_MOTION_DOT,MEAN_MOTION_DDOT,TLE_LINE0,TLE_LINE1,TLE_LINE2,SEMIMAJOR_AXIS,PERIOD,APOGEE,PERIGEE,DECAYED
49173.0,STARLINK-3045,PAYLOAD,2022-10-31 12:15:21,14.98342546,0.0002813999999999,70.0006,123.5545,262.0364,98.0476,5.7817e-05,5.97e-06,0.0,0 STARLINK-3045,1 49173U 21082AV  22304.51066482  .00000597  00000-0  57817-4 0  9993,2 49173  70.0006 123.5545 0002814 262.0364  98.0476 14.98342546 62954,6950.154,96.106,573.975,570.063,0.0
49173.0,STARLINK-3045,PAYLOAD,2022-10-31 18:39:53,14.98343532,0.0002803,70.0006,122.8812,261.9973,98.0868,0.00013245,1.488e-05,0.0,0 STARLINK-3045,1 49173U 21082AV  22304.77770297  .00001488  00000-0  13245-3 0  9993,2 49173  70.0006 122.8812 0002803 261.9973  98.0868 14.98343532 62990,6950.151,96.106,573.964,570.068,0.0
49173.0,STARLINK-3045,PAYLOAD,2022-11-01 12:17:22,14.98324334,0.0002807,70.0008,121.0299,262.0741,98.01,0.00012776,1.432e-05,0.0,0 STARLINK-3045,1 49173U 21082AV  22305.51206984  .00001432  00000-0  12776-3 0  9990,2 49173  70.0008 121.0299 0002807 262.0741  98.0100 14.98324334 63103,6950.21,96.107,574.026,570.124,0.0
49173.0,STARLINK-3045,PAYLOAD,2022-11-01 18:41:55,14.98329586,0.0002835,69.9995,120.356,260.9971,99.0867,-2.837900000000001e-06,-1.27e-06,0.0,0 STARLINK-3045,1 49173U 21082AV  22305.77910959 -.00000127  00000-0 -28379-5 0  9992,2 49173  69.9995 120.3560 0002835 260.9971  99.0867 14.98329586 63140,6950.194,96.107,574.03,570.089,0.0
49173.0,STARLINK-3045,PAYLOAD,2022-11-02 12:19:23,14.98331821,0.0002881,69.9994,118.5047,263.0602,97.0229,-1.2215e-05,-2.39e-06,0.0,0 STARLINK-3045,1 49173U 21082AV  22306.51346725 -.00000239  00000-0 -12215-4 0  9994,2 49173  69.9994 118.5047 0002881 263.0602  97.0229 14.98331821 63251,6950.187,96.107,574.055,570.05,0.0
49173.0,STARLINK-3045,PAYLOAD,2022-11-02 15:31:39,14.98331205,0.0002875,69.9995,118.168,262.963,97.1203,-2.1206e-05,-3.46e-06,0.0,0 STARLINK-3045,1 49173U 21082AV  22306.64698753 -.00000346  00000-0 -21206-4 0  9998,2 49173  69.9995 118.1680 0002875 262.9630  97.1203 14.98331205 63274,6950.189,96.107,574.052,570.056,0.0
49173.0,STARLINK-3045,PAYLOAD,2022-11-03 04:20:44,14.98331069,0.0002918999999999,69.9995,116.8215,263.4436,96.6391,6.0019e-05,6.23e-06,0.0,0 STARLINK-3045,1 49173U 21082AV  22307.18106526  .00000623  00000-0  60019-4 0  9991,2 49173  69.9995 116.8215 0002919 263.4436  96.6391 14.98331069 63351,6950.19,96.107,574.0830000000002,570.026,0.0
49173.0,STARLINK-3045,PAYLOAD,2022-11-03 10:45:16,14.9832963,0.0002909,69.9995,116.1483,263.3787,96.7041,0.00014452,1.632e-05,0.0,0 STARLINK-3045,1 49173U 21082AV  22307.44810361  .00001632  00000-0  14452-3 0  9999,2 49173  69.9995 116.1483 0002909 263.3787  96.7041 14.98329630 63396,6950.194,96.107,574.081,570.0369999999998,0.0
49173.0,STARLINK-3045,PAYLOAD,2022-11-03 13:57:32,14.98330233,0.0002906,69.9995,115.8116,263.3815,96.7013,0.00014711,1.663e-05,0.0,0 STARLINK-3045,1 49173U 21082AV  22307.58162340  .00001663  00000-0  14711-3 0  9993,2 49173  69.9995 115.8116 0002906 263.3815  96.7013 14.98330233 63417,6950.191999999999,96.107,574.077,570.0369999999998,0.0
49173.0,STARLINK-3045,PAYLOAD,2022-11-04 04:22:44,14.98336777,0.0002904,69.9994,114.2966,263.4491,96.6337,0.00017603,2.008e-05,0.0,0 STARLINK-3045,1 49173U 21082AV  22308.18245829  .00002008  00000-0  17603-3 0  9991,2 49173  69.9994 114.2966 0002904 263.4491  96.6337 14.98336777 63508,6950.172,96.107,574.055,570.019,0.0
49173.0,STARLINK-3045,PAYLOAD,2022-11-04 17:11:49,14.98333359,0.0002923,69.9995,112.9501,264.0381,96.0445,9.6836e-05,1.063e-05,0.0,0 STARLINK-3045,1 49173U 21082AV  22308.71654118  .00001063  00000-0  96836-4 0  9991,2 49173  69.9995 112.9501 0002923 264.0381  96.0445 14.98333359 63580,6950.183000000001,96.107,574.0790000000002,570.016,0.0
49173.0,STARLINK-3045,PAYLOAD,2022-11-05 12:25:25,14.98334919,0.0002992,69.9995,110.9301,263.8559,96.2259,4.415e-05,4.34e-06,0.0,0 STARLINK-3045,1 49173U 21082AV  22309.51765994  .00000434  00000-0  44150-4 0  9998,2 49173  69.9995 110.9301 0002992 263.8559  96.2259 14.98334919 63708,6950.178000000001,96.107,574.122,569.9630000000002,0.0
49173.0,STARLINK-3045,PAYLOAD,2022-11-05 17:13:50,14.98329698,0.0002683,69.9993,110.4252,267.9196,92.1656,8.759100000000001e-05,9.52e-06,0.0,0 STARLINK-3045,1 49173U 21082AV  22309.71794286  .00000952  00000-0  87591-4 0  9997,2 49173  69.9993 110.4252 0002683 267.9196  92.1656 14.98329698 63732,6950.194,96.107,573.924,570.194,0.0
49173.0,STARLINK-3045,PAYLOAD,2022-11-06 04:26:47,14.98322372,0.0003009,69.9997,109.2471,263.5097,96.5719,-0.00011157,-1.424e-05,0.0,0 STARLINK-3045,1 49173U 21082AV  22310.18527107 -.00001424  00000-0 -11157-3 0  9997,2 49173  69.9997 109.2471 0003009 263.5097  96.5719 14.98322372 63808,6950.215999999999,96.107,574.173,569.99,0.0
49173.0,STARLINK-3045,PAYLOAD,2022-11-06 12:27:27,14.98325224,0.0003003,69.9998,108.4055,263.2261,96.8557,-7.4e-05,-9.76e-06,0.0,0 STARLINK-3045,1 49173U 21082AV  22310.51906946 -.00000976  00000-0 -74000-4 0  9994,2 49173  69.9998 108.4055 0003003 263.2261  96.8557 14.98325224 63859,6950.208000000001,96.107,574.16,569.986,0.0
49173.0,STARLINK-3045,PAYLOAD,2022-11-07 04:28:48,14.98327947,0.0003003999999999,69.9997,106.7219,262.5333,97.5484,1.1935e-05,4.9e-07,0.0,0 STARLINK-3045,1 49173U 21082AV  22311.18666833  .00000049  00000-0  11935-4 0  9993,2 49173  69.9997 106.7219 0003004 262.5333  97.5484 14.98327947 63956,6950.199000000001,96.107,574.1519999999998,569.976,0.0
49173.0,STARLINK-3045,PAYLOAD,2022-11-07 20:30:08,14.98332872,0.0002927,69.9997,105.0391,264.2351,95.8474,0.00012919,1.449e-05,0.0,0 STARLINK-3045,1 49173U 21082AV  22311.85426364  .00001449  00000-0  12919-3 0  9997,2 49173  69.9997 105.0391 0002927 264.2351  95.8474 14.98332872 64056,6950.184,96.107,574.0830000000002,570.015,0.0
49173.0,STARLINK-3045,PAYLOAD,2022-11-08 15:43:45,14.98327848,0.0002974,69.9996,103.0192,264.2709,95.811,0.00011094,1.231e-05,0.0,0 STARLINK-3045,1 49173U 21082AV  22312.65538685  .00001231  00000-0  11094-3 0  9998,2 49173  69.9996 103.0192 0002974 264.2709  95.8110 14.98327848 64178,6950.2,96.107,574.132,569.998,0.0
49173.0,STARLINK-3045,PAYLOAD,2022-11-08 20:32:09,14.983293099999996,0.0002986,69.9996,102.5143,264.4713,95.6105,9.3044e-05,1.017e-05,0.0,0 STARLINK-3045,1 49173U 21082AV  22312.85566654  .00001017  00000-0  93044-4 0  9995,2 49173  69.9996 102.5143 0002986 264.4713  95.6105 14.98329310 64200,6950.195,96.107,574.135,569.985,0.0
49173.0,STARLINK-3045,PAYLOAD,2022-11-09 14:09:37,14.98333817,0.0003056,69.9995,100.6624,265.1403,94.9407,6.1422e-05,6.4e-06,0.0,0 STARLINK-3045,1 49173U 21082AV  22313.59002265  .00000640  00000-0  61422-4 0  9996,2 49173  69.9995 100.6624 0003056 265.1403  94.9407 14.98333817 64311,6950.181,96.107,574.17,569.922,0.0
49173.0,STARLINK-3045,PAYLOAD,2022-11-09 20:34:10,14.98329048,0.0003167,69.9995,99.9893,265.6373,94.4424,-2.0036e-05,-3.32e-06,0.0,0 STARLINK-3045,1 49173U 21082AV  22313.85706729 -.00000332  00000-0 -20036-4 0  9997,2 49173  69.9995  99.9893 0003167 265.6373  94.4424 14.98329048 64352,6950.196,96.107,574.262,569.86,0.0
49173.0,STARLINK-3045,PAYLOAD,2022-11-10 09:23:14,14.98333554,0.0003338,69.9999,98.6437,270.2066,89.8711,2.0287e-05,1.49e-06,0.0,0 STARLINK-3045,1 49173U 21082AV  22314.39114193  .00000149  00000-0  20287-4 0  9997,2 49173  69.9999  98.6437 0003338 270.2066  89.8711 14.98333554 64430,6950.182,96.107,574.367,569.727,0.0
49173.0,STARLINK-3045,PAYLOAD,2022-11-10 19:00:03,14.98322789,0.0003302,70.0002,97.6349,268.394,91.6841,-0.00011403,-1.453e-05,0.0,0 STARLINK-3045,1 49173U 21082AV  22314.79171271 -.00001453  00000-0 -11403-3 0  9991,2 49173  70.0002  97.6349 0003302 268.3940  91.6841 14.98322789 64498,6950.215,96.107,574.375,569.785,0.0
49173.0,STARLINK-3045,PAYLOAD,2022-11-11 03:00:44,14.98324635,0.0003311,70.0,96.7927,266.6205,93.4575,-5.9108e-05,-7.98e-06,0.0,0 STARLINK-3045,1 49173U 21082AV  22315.12551120 -.00000798  00000-0 -59108-4 0  9990,2 49173  70.0000  96.7927 0003311 266.6205  93.4575 14.98324635 64545,6950.209,96.107,574.376,569.773,0.0
49173.0,STARLINK-3045,PAYLOAD,2022-11-11 12:37:32,14.98324383,0.0003231,70.0002,95.782,267.328,92.7509,2.9683e-05,2.61e-06,0.0,0 STARLINK-3045,1 49173U 21082AV  22315.52607046  .00000261  00000-0  29683-4 0  9991,2 49173  70.0002  95.7820 0003231 267.3280  92.7509 14.98324383 64606,6950.21,96.107,574.321,569.83,0.0
49173.0,STARLINK-3045,PAYLOAD,2022-11-11 19:02:04,14.98327179,0.0003188999999999,70.0002,95.1086,266.4258,93.6536,8.1951e-05,8.85e-06,0.0,0 STARLINK-3045,1 49173U 21082AV  22315.79310841  .00000885  00000-0  81951-4 0  9992,2 49173  70.0002  95.1086 0003189 266.4258  93.6536 14.98327179 64641,6950.2019999999975,96.107,574.283,569.85,0.0
49173.0,STARLINK-3045,PAYLOAD,2022-11-12 03:02:44,14.98333674,0.0003183,70.0003,94.2669,266.2152,93.8643,8.711299999999999e-05,9.47e-06,0.0,0 STARLINK-3045,1 49173U 21082AV  22316.12690444  .00000947  00000-0  87113-4 0  9995,2 49173  70.0003  94.2669 0003183 266.2152  93.8643 14.98333674 64697,6950.182,96.107,574.259,569.8340000000002,0.0
49173.0,STARLINK-3045,PAYLOAD,2022-11-12 14:15:40,14.98345029,0.0003229,70.0002,93.0887,264.0468,96.0323,-0.00026708,-3.28e-05,0.0,0 STARLINK-3045,1 49173U 21082AV  22316.59422362 -.00003280  00000-0 -26708-3 0  9995,2 49173  70.0002  93.0887 0003229 264.0468  96.0323 14.98345029 64767,6950.146,96.106,574.256,569.7669999999998,0.0
49173.0,STARLINK-3045,PAYLOAD,2022-11-12 19:04:06,14.9831894,0.0003181,70.0002,92.5838,266.3048,93.7747,7.9508e-05,8.56e-06,0.0,0 STARLINK-3045,1 49173U 21082AV  22316.79451526  .00000856  00000-0  79508-4 0  9992,2 49173  70.0002  92.5838 0003181 266.3048  93.7747 14.98318940 64792,6950.227,96.108,574.303,569.881,0.0
